TDRS 3                  
1 19548U 88091B   23150.93337834 -.00000290  00000+0  00000+0 0  9994
2 19548  13.4580 348.6747 0035475 339.3476 207.3809  1.00273784114207
FLTSATCOM 8 (USA 46)    
1 20253U 89077A   23143.14411640 -.00000081  00000+0  00000+0 0  9995
2 20253  12.7587 358.0109 0006592 110.1214 256.0976  1.00273579249376
SKYNET 4C               
1 20776U 90079A   23150.74285400  .00000135  00000+0  00000+0 0  9995
2 20776  13.7001 357.4994 0002942  70.0135 121.3424  1.00269121119729
TDRS 5                  
1 21639U 91054B   23150.76647568  .00000093  00000+0  00000+0 0  9990
2 21639  14.2079   1.9710 0027267   0.9039 353.3856  1.00274692116540
TDRS 6                  
1 22314U 93003B   23150.43231181 -.00000286  00000+0  00000+0 0  9996
2 22314  14.1501   5.2520 0011287 129.8910 222.3177  1.00275630111235
UFO 2 (USA 95)          
1 22787U 93056A   23150.85868657  .00000137  00000+0  00000+0 0  9992
2 22787  11.5527   9.3327 0003156  56.2568 160.3275  1.00273165107388
USA 99 (MILSTAR-1 1)    
1 22988U 94009A   23150.63856122 -.00000186  00000+0  00000+0 0  9999
2 22988  15.9048  39.4673 0002533  21.1027 327.2338  1.00273095 21790
UFO 4 (USA 108)         
1 23467U 95003A   23151.43966550 -.00000010  00000+0  00000+0 0  9999
2 23467   9.8099  16.6826 0004794  77.3429 125.2209  1.00271527103790
AMSC 1                  
1 23553U 95019A   23151.40947111 -.00000082  00000+0  00000+0 0  9990
2 23553  12.2709  23.9211 0005296  39.9265 224.6895  1.00272485103015
TDRS 7                  
1 23613U 95035B   23150.89976595 -.00000193  00000+0  00000+0 0  9998
2 23613  13.8412 355.9778 0029950  61.6049 239.2615  1.00275992102085
USA 115 (MILSTAR-1 2)   
1 23712U 95060A   23151.44808062 -.00000010  00000+0  00000+0 0  9999
2 23712  13.6583  11.7616 0001447  58.3670 219.9034  1.00275436 20480
INMARSAT 3-F1           
1 23839U 96020A   23151.19562973 -.00000270  00000+0  00000+0 0  9994
2 23839   8.2626  55.7738 0007489  35.1537 183.3009  0.99995157 99420
INMARSAT 3-F2           
1 24307U 96053A   23150.52827021  .00000106  00000+0  00000+0 0  9992
2 24307   7.3083  64.2590 0010022  14.6843 194.4386  0.99997403 97782
AMC-1 (GE-1)            
1 24315U 96054A   23151.46739521  .00000081  00000+0  00000+0 0  9995
2 24315   6.4458  70.0979 0004019   8.9984 206.9710  1.00273281 97867
INMARSAT 3-F3           
1 24674U 96070A   23150.90105674 -.00000083  00000+0  00000+0 0  9998
2 24674   7.8869  59.2564 0006290  22.6238 212.8927  0.99978930 96778
GALAXY 25 (G-25)        
1 24812U 97026A   23150.97966030 -.00000099  00000+0  00000+0 0  9999
2 24812   4.5646  80.1468 0013180 355.5418 175.4683  0.99037672 95196
INTELSAT 5 (IS-5)       
1 24916U 97046A   23150.61438347 -.00000048  00000+0  00000+0 0  9996
2 24916   7.9727  58.5438 0002071  18.2962 198.3056  1.00270863 94458
AMC-3 (GE-3)            
1 24936U 97050A   23151.38443625 -.00000242  00000+0  00000+0 0  9999
2 24936   5.3995  76.1180 0003073 341.3515 257.5527  1.00271192 94295
USA 134                 
1 25019U 97065A   23151.20718740 -.00000047  00000+0  00000+0 0  9995
2 25019  11.4571  29.3206 0004817  23.9019 157.3830  1.00272032 20448
ASTRA 1G                
1 25071U 97076A   23150.51687618  .00000130  00000+0  00000+0 0  9999
2 25071   7.0423  65.5202 0004370   2.8249  24.8797  1.00272905 93377
INMARSAT 3-F5           
1 25153U 98006B   23150.39920385 -.00000274  00000+0  00000+0 0  9991
2 25153   7.1771  63.2500 0005118   3.4890 270.5735  1.00268368 92729
UFO 8 (USA 138)         
1 25258U 98016A   23150.63551045 -.00000109  00000+0  00000+0 0  9995
2 25258   9.8096  28.4601 0001275  64.0976 278.9123  1.00392507 92688
ASTRA 2A                
1 25462U 98050A   23150.80844962  .00000087  00000+0  00000+0 0  9996
2 25462   4.2762  81.7873 0003461 340.2251 174.2852  1.00270740 35173
SKYNET 4E               
1 25639U 99009B   23150.37202262 -.00000023  00000+0  00000+0 0  9991
2 25639  11.4253  15.0957 0002066  51.5412 313.7044  1.00274074 40227
ABS-6                   
1 25924U 99053A   23151.11646728 -.00000101  00000+0  00000+0 0  9996
2 25924   0.0346  89.6479 0002586 335.1232  24.5178  1.00270081 86684
UFO 10 (USA 146)        
1 25967U 99063A   23151.40465910 -.00000173  00000+0  00000+0 0  9997
2 25967   9.1460  32.2134 0004145  62.1699 277.1535  1.00272285 86183
GALAXY 11 (G-11)        
1 26038U 99071A   23151.36654743 -.00000144  00000+0  00000+0 0  9993
2 26038   3.8870  83.7886 0001657  60.1687 143.5053  1.00271704 85921
USA 148                 
1 26052U 00001A   23151.44098767  .00000053  00000+0  00000+0 0  9999
2 26052  10.0922  40.2663 0000798 352.6509 194.9305  1.00271759 20461
ASIASTAR                
1 26107U 00016A   23150.91625191 -.00000317  00000+0  00000+0 0  9998
2 26107   6.4965  69.0599 0004595 358.8464 255.1144  1.00271596 84754
USA 149 (DSP 20)        
1 26356U 00024A   23151.44147414  .00000106  00000+0  00000+0 0  9994
2 26356  12.3353  19.2683 0001313 327.3305 255.3850  1.00264272 20443
TDRS 8                  
1 26388U 00034A   23150.89998123 -.00000214  00000+0  00000+0 0  9990
2 26388  10.9189  40.1245 0022558 348.0239 272.7120  1.00262645 84003
INTELSAT 9 (IS-9)       
1 26451U 00043A   23151.19100006 -.00000272  00000+0  00000+0 0  9994
2 26451   7.9582  58.7229 0002904   8.6350 199.8447  1.00272083 83681
NSS-11 (AAP-1)          
1 26554U 00059A   23150.76316343  .00000043  00000+0  00000+0 0  9995
2 26554   0.0147 355.8327 0002966  56.7168 286.1961  1.00271310 83004
USA 153                 
1 26575U 00065A   23150.71259672 -.00000311  00000+0  00000+0 0  9990
2 26575   9.6912  43.5881 0000620   6.5453 228.7892  1.00268551 21766
AMC-6 (GE-6)            
1 26580U 00067A   23150.77214140  .00000122  00000+0  00000+0 0  9994
2 26580   0.0438  81.2768 0002687 356.2367 309.4956  1.00273748 82823
INTELSAT 1R (IS-1R)     
1 26608U 00072A   23151.18943677 -.00000121  00000+0  00000+0 0  9991
2 26608   5.3425  76.1723 0001227  76.1400 321.4070  1.00271844 82496
ANIK F1                 
1 26624U 00076A   23151.53342521 -.00000043  00000+0  00000+0 0  9996
2 26624   2.3203  88.3852 0010616 356.4141 246.8823  1.00272268 82566
USA 157 (MILSTAR-2 2)   
1 26715U 01009A   23151.35061564  .00000024  00000+0  00000+0 0  9997
2 26715  10.3495  25.7132 0001869  43.3060 181.6788  1.00277618 20480
EUTELSAT 133 WEST A     
1 26719U 01011A   23151.02380890  .00000166  00000+0  00000+0 0  9991
2 26719   4.5718  79.2963 0002829  13.2543 187.9430  1.00476069 81416
INTELSAT 10 (IS-10)     
1 26766U 01019A   23151.05026213  .00000051  00000+0  00000+0 0  9993
2 26766   6.4054  70.2944 0004413 352.0326  21.8480  1.00271835 80779
INTELSAT 901 (IS-901)   
1 26824U 01024A   23151.02132723 -.00000183  00000+0  00000+0 0  9992
2 26824   0.0398 109.0148 0000934 330.5614 148.8895  1.00270337 80425
ASTRA 2C                
1 26853U 01025A   23151.11643078 -.00000241  00000+0  00000+0 0  9990
2 26853   5.4214  75.9364 0003025 345.8436 156.0255  1.00270082 80416
USA 159 (DSP 21)        
1 26880U 01033A   23150.49632657 -.00000286  00000+0  00000+0 0  9999
2 26880  11.7397  23.6723 0000593 342.9632  10.4535  1.00264398 20444
INTELSAT 902 (IS-902)   
1 26900U 01039A   23150.78983586 -.00000264  00000+0  00000+0 0  9996
2 26900   3.2846  85.0982 0003392   3.3877  33.8042  1.00272258 79530
USA 164 (MILSTAR-2 3)   
1 27168U 02001A   23150.77959744  .00000072  00000+0  00000+0 0  9997
2 27168   9.8817  27.5821 0100751 353.1620 166.8251  1.00273828 21797
INTELSAT 904 (IS-904)   
1 27380U 02007A   23151.08050830 -.00000195  00000+0  00000+0 0  9999
2 27380   4.1104  82.1627 0003130 341.7020 183.9424  1.00271564 77924
NSS-7                   
1 27414U 02019A   23151.00327102 -.00000142  00000+0  00000+0 0  9993
2 27414   6.7156  68.3535 0002529   2.5798 158.4661  1.00271001 77393
DIRECTV 5 (TEMPO 1)     
1 27426U 02023A   23150.63446447 -.00000037  00000+0  00000+0 0  9996
2 27426   2.0123  89.0625 0003365 335.2394 301.8814  1.00272044 76959
INTELSAT 905 (IS-905)   
1 27438U 02027A   23151.01577017 -.00000166  00000+0  00000+0 0  9997
2 27438   3.9334  82.8627 0002791 338.5733 168.0135  1.00272678 76800
GALAXY 3C (G-3C)        
1 27445U 02030A   23151.21769596 -.00000133  00000+0  00000+0 0  9990
2 27445   0.8472  90.7903 0000655  76.3980  64.8057  1.00272114 76799
INTELSAT 906 (IS-906)   
1 27513U 02041A   23151.52940278  .00000034  00000+0  00000+0 0  9999
2 27513   2.9577  86.4414 0004475 353.4722  63.5638  1.00271764 75813
TDRS 10                 
1 27566U 02055A   23150.70203635  .00000103  00000+0  00000+0 0  9997
2 27566   8.8441  47.9349 0008394 348.9546 292.6345  1.00275524 75067
NSS-6                   
1 27603U 02057A   23151.41119118  .00000127  00000+0  00000+0 0  9998
2 27603   2.4943  87.5884 0003217 334.3913 165.1914  1.00269430 74879
NIMIQ 2                 
1 27632U 02062A   23151.20965036 -.00000050  00000+0  00000+0 0  9997
2 27632   6.8207  67.8242 0003879  11.0624 135.8885  1.00273113 74709
USA 167                 
1 27691U 03008A   23151.20067993  .00000067  00000+0  00000+0 0  9995
2 27691   8.7305  52.3063 0001184  11.1343 127.3526  1.00273849 20468
USA 169 (MILSTAR-2 4)   
1 27711U 03012A   23150.97344757 -.00000220  00000+0  00000+0 0  9994
2 27711  10.6469  37.9940 0100441 353.6722 359.1372  1.00272579 20483
GALAXY 12 (G-12)        
1 27715U 03013B   23151.51797601  .00000105  00000+0  00000+0 0  9991
2 27715   4.1443  81.8513 0001018 296.1207 283.9713  1.00199971 73856
ASIASAT 4               
1 27718U 03014A   23151.40261130 -.00000202  00000+0  00000+0 0  9995
2 27718   1.8472  89.6938 0003036 331.6467 119.7949  1.00271786 73769
HELLAS-SAT 2            
1 27811U 03020A   23150.65442522 -.00000064  00000+0  00000+0 0  9994
2 27811   4.5548  80.8104 0005932 346.7491  45.9399  1.00271645 31684
THURAYA-2               
1 27825U 03026A   23150.95987043  .00000142  00000+0  00000+0 0  9996
2 27825   7.1834  34.6044 0002406  20.8308 222.3102  1.00270518 73177
